{
  "norad_id": 57146,
  "name": "STARLINK-5791",
  "history": [
    {
      "epoch": "2026-03-28T22:00:01.999584Z",
      "apogee_km": 486.42202256380006,
      "perigee_km": 484.6193515088771,
      "latitude_deg": 34.92799154874421,
      "longitude_deg": 130.00772799976204,
      "height_km": 487.8189070560645,
      "semi_major_axis_km": 6863.657687036339,
      "eccentricity": 0.00013132,
      "inclination_deg": 43.0006,
      "raan_deg": 154.4816,
      "arg_perigee_deg": 284.587,
      "mean_anomaly_deg": 198.6229,
      "mean_motion_rev_day": 15.26754956
    },
    {
      "epoch": "2026-03-29T00:00:01.999296Z",
      "apogee_km": 486.4501744240142,
      "perigee_km": 484.6985552837041,
      "latitude_deg": -27.190908659397486,
      "longitude_deg": -179.1891618779554,
      "height_km": 492.0260416470315,
      "semi_major_axis_km": 6863.711364853859,
      "eccentricity": 0.0001276,
      "inclination_deg": 43.0005,
      "raan_deg": 154.0114,
      "arg_perigee_deg": 276.9858,
      "mean_anomaly_deg": 304.7932,
      "mean_motion_rev_day": 15.26737046
    },
    {
      "epoch": "2026-03-30T03:17:45.126240Z",
      "apogee_km": 486.3429081238228,
      "perigee_km": 484.741611752479,
      "latitude_deg": 3.3374924872597754e-05,
      "longitude_deg": -89.37457216563291,
      "height_km": 485.04707920824035,
      "semi_major_axis_km": 6863.679259938151,
      "eccentricity": 0.00011665,
      "inclination_deg": 43.0008,
      "raan_deg": 147.5968,
      "arg_perigee_deg": 289.8473,
      "mean_anomaly_deg": 70.2253,
      "mean_motion_rev_day": 15.26747758
    },
    {
      "epoch": "2026-03-30T11:08:48.003936Z",
      "apogee_km": 486.24406105488015,
      "perigee_km": 484.88065581432147,
      "latitude_deg": -1.098066935908973e-05,
      "longitude_deg": 150.69466963801153,
      "height_km": 485.125534567073,
      "semi_major_axis_km": 6863.699358434601,
      "eccentricity": 9.932e-05,
      "inclination_deg": 43.0009,
      "raan_deg": 145.7505,
      "arg_perigee_deg": 288.2379,
      "mean_anomaly_deg": 71.8364,
      "mean_motion_rev_day": 15.26741052
    },
    {
      "epoch": "2026-03-30T20:34:02.798976Z",
      "apogee_km": 486.28908562121705,
      "perigee_km": 484.8214909361386,
      "latitude_deg": 5.963340305862212e-06,
      "longitude_deg": 6.782544622003745,
      "height_km": 485.1422930533206,
      "semi_major_axis_km": 6863.692288278678,
      "eccentricity": 0.00010691,
      "inclination_deg": 43.001,
      "raan_deg": 143.5369,
      "arg_perigee_deg": 284.9744,
      "mean_anomaly_deg": 75.0989,
      "mean_motion_rev_day": 15.26743411
    },
    {
      "epoch": "2026-03-31T12:16:07.696416Z",
      "apogee_km": 486.27820850877833,
      "perigee_km": 484.8393033305074,
      "latitude_deg": 5.9867180479516946e-05,
      "longitude_deg": 126.92716502968267,
      "height_km": 485.17629212195595,
      "semi_major_axis_km": 6863.695755919643,
      "eccentricity": 0.00010482,
      "inclination_deg": 43.0011,
      "raan_deg": 139.8467,
      "arg_perigee_deg": 282.7731,
      "mean_anomaly_deg": 77.3004,
      "mean_motion_rev_day": 15.26742254
    },
    {
      "epoch": "2026-04-01T19:40:17.422176Z",
      "apogee_km": 486.2603369299268,
      "perigee_km": 484.8724960991076,
      "latitude_deg": -2.9024848821601096e-05,
      "longitude_deg": 7.216284803534238,
      "height_km": 485.2526146752429,
      "semi_major_axis_km": 6863.703416514517,
      "eccentricity": 0.0001011,
      "inclination_deg": 43.0014,
      "raan_deg": 132.4661,
      "arg_perigee_deg": 277.487,
      "mean_anomaly_deg": 82.5866,
      "mean_motion_rev_day": 15.26739698
    },
    {
      "epoch": "2026-04-02T19:13:24.081888Z",
      "apogee_km": 486.19951067322836,
      "perigee_km": 484.87537060014074,
      "latitude_deg": -1.2727470606169794e-05,
      "longitude_deg": 7.435714058038832,
      "height_km": 485.2568915762958,
      "semi_major_axis_km": 6863.674440636684,
      "eccentricity": 9.646e-05,
      "inclination_deg": 43.002,
      "raan_deg": 126.9305,
      "arg_perigee_deg": 274.9553,
      "mean_anomaly_deg": 85.1188,
      "mean_motion_rev_day": 15.26749366
    },
    {
      "epoch": "2026-04-03T09:21:16.802784Z",
      "apogee_km": 486.15724379211133,
      "perigee_km": 484.95911716140654,
      "latitude_deg": 7.19755388318669e-06,
      "longitude_deg": 151.56511267913666,
      "height_km": 485.27017795690756,
      "semi_major_axis_km": 6863.695180476759,
      "eccentricity": 8.728e-05,
      "inclination_deg": 43.0034,
      "raan_deg": 123.6099,
      "arg_perigee_deg": 276.2015,
      "mean_anomaly_deg": 83.8737,
      "mean_motion_rev_day": 15.26742446
    },
    {
      "epoch": "2026-04-04T08:54:24.303168Z",
      "apogee_km": 486.2529837458178,
      "perigee_km": 484.9015184097807,
      "latitude_deg": 2.4170724122304478e-05,
      "longitude_deg": 151.78252907685504,
      "height_km": 485.3374917866062,
      "semi_major_axis_km": 6863.7142510777985,
      "eccentricity": 9.845e-05,
      "inclination_deg": 43.0093,
      "raan_deg": 118.0758,
      "arg_perigee_deg": 271.4606,
      "mean_anomaly_deg": 88.6133,
      "mean_motion_rev_day": 15.26736083
    },
    {
      "epoch": "2026-04-05T08:27:32.277024Z",
      "apogee_km": 486.60626211682757,
      "perigee_km": 484.5938144172069,
      "latitude_deg": -2.9513070191805083e-05,
      "longitude_deg": 151.99159110936057,
      "height_km": 485.08640343716036,
      "semi_major_axis_km": 6863.737038267017,
      "eccentricity": 0.0001466,
      "inclination_deg": 43.0022,
      "raan_deg": 112.5354,
      "arg_perigee_deg": 286.793,
      "mean_anomaly_deg": 73.276,
      "mean_motion_rev_day": 15.2672848
    },
    {
      "epoch": "2026-04-05T17:52:48.078624Z",
      "apogee_km": 486.7589454981571,
      "perigee_km": 484.4829233670989,
      "latitude_deg": -4.584075275803689e-05,
      "longitude_deg": 8.079823973319165,
      "height_km": 485.46589135020173,
      "semi_major_axis_km": 6863.757934432628,
      "eccentricity": 0.0001658,
      "inclination_deg": 43.0022,
      "raan_deg": 110.3264,
      "arg_perigee_deg": 266.5883,
      "mean_anomaly_deg": 93.4778,
      "mean_motion_rev_day": 15.26721508
    },
    {
      "epoch": "2026-04-06T01:43:49.930752Z",
      "apogee_km": 487.4681095952901,
      "perigee_km": 483.77142747489233,
      "latitude_deg": 2.120412051869795e-05,
      "longitude_deg": -111.84723154253085,
      "height_km": 485.6903856845836,
      "semi_major_axis_km": 6863.7567685350905,
      "eccentricity": 0.00026929,
      "inclination_deg": 43.0035,
      "raan_deg": 108.4794,
      "arg_perigee_deg": 260.8931,
      "mean_anomaly_deg": 99.1616,
      "mean_motion_rev_day": 15.26721897
    },
    {
      "epoch": "2026-04-07T01:16:55.985664Z",
      "apogee_km": 486.48757641140674,
      "perigee_km": 484.6439858443946,
      "latitude_deg": 7.542600853839258e-06,
      "longitude_deg": -111.62151057655157,
      "height_km": 485.41139500663377,
      "semi_major_axis_km": 6863.7027811279,
      "eccentricity": 0.0001343,
      "inclination_deg": 43.0041,
      "raan_deg": 102.9476,
      "arg_perigee_deg": 265.7425,
      "mean_anomaly_deg": 94.3273,
      "mean_motion_rev_day": 15.2673991
    },
    {
      "epoch": "2026-04-07T16:59:01.256352Z",
      "apogee_km": 486.6070191257495,
      "perigee_km": 484.5684928732162,
      "latitude_deg": 4.778132465653846e-05,
      "longitude_deg": 8.519632999375851,
      "height_km": 485.4827064035651,
      "semi_major_axis_km": 6863.724755999482,
      "eccentricity": 0.0001485,
      "inclination_deg": 43.0016,
      "raan_deg": 99.2555,
      "arg_perigee_deg": 263.355,
      "mean_anomaly_deg": 96.7133,
      "mean_motion_rev_day": 15.26732578
    },
    {
      "epoch": "2026-04-08T08:41:05.781408Z",
      "apogee_km": 486.67029332380025,
      "perigee_km": 484.424770292374,
      "latitude_deg": 2.279793878464282e-05,
      "longitude_deg": 128.66562227233385,
      "height_km": 485.4272745684132,
      "semi_major_axis_km": 6863.684531808087,
      "eccentricity": 0.00016358,
      "inclination_deg": 43.0017,
      "raan_deg": 95.5652,
      "arg_perigee_deg": 264.7569,
      "mean_anomaly_deg": 95.3096,
      "mean_motion_rev_day": 15.26745999
    },
    {
      "epoch": "2026-04-09T16:05:15.091584Z",
      "apogee_km": 486.4490666350266,
      "perigee_km": 484.6548983350049,
      "latitude_deg": 1.4622105971155638e-05,
      "longitude_deg": 8.9579588453554,
      "height_km": 485.37746074143377,
      "semi_major_axis_km": 6863.688982485016,
      "eccentricity": 0.0001307,
      "inclination_deg": 43.0028,
      "raan_deg": 88.186,
      "arg_perigee_deg": 266.9028,
      "mean_anomaly_deg": 93.1674,
      "mean_motion_rev_day": 15.26744514
    },
    {
      "epoch": "2026-04-10T06:13:07.871232Z",
      "apogee_km": 486.5246549276362,
      "perigee_km": 484.6228579512408,
      "latitude_deg": 6.442820020858689e-05,
      "longitude_deg": 153.08614217259458,
      "height_km": 485.4243155851715,
      "semi_major_axis_km": 6863.710756439438,
      "eccentricity": 0.00013854,
      "inclination_deg": 43.0028,
      "raan_deg": 84.8644,
      "arg_perigee_deg": 265.5672,
      "mean_anomaly_deg": 94.5022,
      "mean_motion_rev_day": 15.26737249
    },
    {
      "epoch": "2026-04-11T15:11:29.472000Z",
      "apogee_km": 486.457015247639,
      "perigee_km": 484.6450016134131,
      "latitude_deg": -1.0004664576084852e-05,
      "longitude_deg": 9.391217537400442,
      "height_km": 485.3583694990881,
      "semi_major_axis_km": 6863.688008430526,
      "eccentricity": 0.000132,
      "inclination_deg": 43.0019,
      "raan_deg": 77.1137,
      "arg_perigee_deg": 268.0749,
      "mean_anomaly_deg": 91.9951,
      "mean_motion_rev_day": 15.26744839
    }
  ]
}